OBJECT_NAME,OBJECT_ID,EPOCH,MEAN_MOTION,ECCENTRICITY,INCLINATION,RA_OF_ASC_NODE,ARG_OF_PERICENTER,MEAN_ANOMALY,EPHEMERIS_TYPE,CLASSIFICATION_TYPE,NORAD_CAT_ID,ELEMENT_SET_NO,REV_AT_EPOCH,BSTAR,MEAN_MOTION_DOT,MEAN_MOTION_DDOT
TRANSPORTER-11 OBJECT A,2024-149A,2026-06-05T00:15:55.310976,15.32701967,.00017883,97.3729,235.9805,252.4666,107.6381,0,U,60468,999,10019,.3199492E-3,.10029E-3,0
WARATAH SEED-1,2024-149B,2026-06-04T17:33:28.702944,15.35621341,.000037,97.3687,236.2977,230.9911,129.1300,0,U,60469,999,10020,.42113E-3,.14515E-3,0
PHISAT 2,2024-149C,2026-06-04T16:39:35.500896,15.30870637,.0000237,97.3754,234.9820,24.0227,336.1025,0,U,60470,999,10008,.28337E-3,.8378E-4,0
LEMUR-2-TOMATOKECHUP,2024-149D,2026-06-04T22:10:50.492928,15.35767551,.0000297,97.3797,237.9426,225.0802,135.0417,0,U,60471,999,10028,.36408E-3,.12593E-3,0
CONNECTA IOT-1,2024-149E,2026-06-04T03:45:39.851136,15.23436180,.00014889,97.3757,231.6689,20.3740,339.7556,0,U,60472,999,9981,.21473525E-3,.5045E-4,0
LOPEN,2024-149F,2026-06-04T10:56:13.233408,15.39307836,.00004821,97.3776,238.7276,24.4909,335.6360,0,U,60473,999,10030,.45540005E-3,.17698E-3,0
ROCK,2024-149G,2026-06-03T23:41:34.098144,15.39289776,.00002576,97.3776,238.2728,344.2354,15.8884,0,U,60474,999,10023,.43893971E-3,.17044E-3,0
CONNECTA IOT-3,2024-149H,2026-06-05T02:20:45.212064,15.23455104,.00017923,97.3732,232.3508,339.5477,20.5688,0,U,60475,999,9996,.1866189E-3,.4377E-4,0
QUBE,2024-149J,2026-06-04T16:31:57.158400,15.46621398,.0000932,97.3776,241.8868,246.7233,113.3918,0,U,60476,999,10053,.51803E-3,.25772E-3,0
WREN-1,2024-149L,2026-06-04T11:23:17.119680,15.41046642,.00029542,97.3763,239.4588,314.4494,45.6510,0,U,60478,999,10036,.57058165E-3,.23523E-3,0
TOMORROW-S1,2024-149M,2026-06-04T15:59:10.245120,15.32536144,.0001027,97.3748,236.1799,309.1986,50.9165,0,U,60479,999,10017,.27190577E-3,.8465E-4,0
FLOCK 4BE-18,2024-149N,2026-06-04T17:57:44.582688,15.41438467,.00023435,97.3724,239.3526,306.6206,53.4825,0,U,60480,999,10039,.44367395E-3,.18498E-3,0
FLOCK 4BE-7,2024-149P,2026-06-04T17:50:02.344416,15.39794674,.0001478,97.3757,238.7107,311.2455,48.8664,0,U,60481,999,10033,.59863E-3,.23684E-3,0
TOMORROW-S2,2024-149T,2026-06-05T00:33:32.949792,15.32566182,.00017776,97.3814,237.0128,348.6162,11.5039,0,U,60485,999,10022,.28682955E-3,.8943E-4,0
FLOCK 4BE-36,2024-149U,2026-06-05T05:54:13.485888,15.42340695,.00022106,97.3742,240.5348,323.3462,36.7634,0,U,60486,999,10051,.36140546E-3,.15506E-3,0
FLOCK 4BE-25,2024-149V,2026-06-04T15:59:42.613152,15.38499747,.00008484,97.3796,238.7355,332.8027,27.3174,0,U,60487,999,10031,.4152799E-3,.15707E-3,0
FLOCK 4BE-31,2024-149W,2026-06-05T00:40:07.567104,15.43602536,.00013577,97.3799,241.1385,342.0063,18.1137,0,U,60488,999,10050,.53562129E-3,.24043E-3,0
FLOCK 4BE-20,2024-149X,2026-06-05T00:20:10.575456,15.37730449,.00023237,97.3692,237.9954,322.8437,37.2647,0,U,60489,999,10034,.42178395E-3,.15562E-3,0
FLOCK 4BE-23,2024-149Y,2026-06-04T16:13:10.056576,15.37350850,.0002152,97.3778,238.0253,338.3167,21.7986,0,U,60490,999,10027,.39241E-3,.14293E-3,0
FLOCK 4BE-15,2024-149Z,2026-06-05T00:25:14.592000,15.57632386,.00011566,97.3666,240.9605,232.4545,127.6605,0,U,60491,999,10053,.14431073E-2,.107777E-2,0
FLOCK 4BE-17,2024-149AA,2026-06-04T17:48:23.654880,15.39414858,.0001562,97.3772,239.0167,315.2578,44.8541,0,U,60492,999,10034,.44212E-3,.17239E-3,0
NUSAT-50 (NANCY ROMAN),2024-149AB,2026-06-04T17:45:41.562432,15.29631577,.0002256,97.3784,237.0853,221.0034,139.1037,0,U,60493,999,10022,.35107E-3,.10008E-3,0
FLOCK 4BE-22,2024-149AC,2026-06-04T17:37:44.897952,15.40776109,.0002463,97.3733,239.1814,330.2167,29.8939,0,U,60494,999,10038,.43895E-3,.17902E-3,0
FLOCK 4BE-34,2024-149AD,2026-06-04T16:28:56.847648,15.40785973,.0002342,97.3778,239.9474,345.8626,14.2555,0,U,60495,999,10040,.42418E-3,.17301E-3,0
TYCHE,2024-149AE,2026-06-04T22:31:30.006336,15.25884313,.00012531,97.3751,233.9183,359.2837,0.8399,0,U,60496,999,10003,.21150492E-3,.5347E-4,0
FLOCK 4BE-32,2024-149AF,2026-06-05T05:56:12.069888,15.41739926,.00023191,97.3718,240.0492,330.5759,29.5358,0,U,60497,999,10049,.4152881E-3,.17482E-3,0
NUSAT-48 (HENRIETTA LEAVITT),2024-149AG,2026-06-04T15:56:46.171392,15.30257586,.00030229,97.3901,237.2285,339.0073,21.1043,0,U,60498,999,10022,.35425347E-3,.10298E-3,0
FLOCK 4BE-30,2024-149AH,2026-06-04T17:00:17.449056,15.53392956,.000204,97.3767,240.8362,228.5176,131.5903,0,U,60499,999,9983,.19359E-2,.12407E-2,0
NUSAT-49 (KLARA DAN VON NEUMANN),2024-149AJ,2026-06-04T16:59:46.800384,15.30287877,.0002153,97.3775,237.0831,31.3894,328.7474,0,U,60500,999,10022,.34680099E-3,.10089E-3,0
