TRANSPORTER-11 OBJECT A 
1 60468U 24149A   26156.01105684  .00010029  00000+0  31995-3 0  9990
2 60468  97.3729 235.9805 0001788 252.4666 107.6381 15.32701967100198
WARATAH SEED-1          
1 60469U 24149B   26155.73158221  .00014515  00000+0  42113-3 0  9992
2 60469  97.3687 236.2977 0000370 230.9911 129.1300 15.35621341100208
PHISAT 2                
1 60470U 24149C   26155.69416089  .00008378  00000+0  28337-3 0  9990
2 60470  97.3754 234.9820 0000237  24.0227 336.1025 15.30870637100080
LEMUR-2-TOMATOKECHUP    
1 60471U 24149D   26155.92419552  .00012593  00000+0  36408-3 0  9997
2 60471  97.3797 237.9426 0000297 225.0802 135.0417 15.35767551100289
CONNECTA IOT-1          
1 60472U 24149E   26155.15671124  .00005045  00000+0  21474-3 0  9999
2 60472  97.3757 231.6689 0001488  20.3740 339.7556 15.23436180 99819
LOPEN                   
1 60473U 24149F   26155.45570872  .00017698  00000+0  45540-3 0  9998
2 60473  97.3776 238.7276 0000482  24.4909 335.6360 15.39307836100303
ROCK                    
1 60474U 24149G   26154.98720021  .00017044  00000+0  43894-3 0  9994
2 60474  97.3776 238.2728 0000257 344.2354  15.8884 15.39289776100230
CONNECTA IOT-3          
1 60475U 24149H   26156.09774551  .00004377  00000+0  18662-3 0  9996
2 60475  97.3732 232.3508 0001792 339.5477  20.5688 15.23455104 99967
QUBE                    
1 60476U 24149J   26155.68885600  .00025772  00000+0  51803-3 0  9995
2 60476  97.3776 241.8868 0000932 246.7233 113.3918 15.46621398100532
WREN-1                  
1 60478U 24149L   26155.47450370  .00023523  00000+0  57058-3 0  9996
2 60478  97.3763 239.4588 0002954 314.4494  45.6510 15.41046642100364
TOMORROW-S1             
1 60479U 24149M   26155.66609080  .00008465  00000+0  27191-3 0  9995
2 60479  97.3748 236.1799 0001027 309.1986  50.9165 15.32536144100178
FLOCK 4BE-18            
1 60480U 24149N   26155.74843267  .00018498  00000+0  44367-3 0  9994
2 60480  97.3724 239.3526 0002343 306.6206  53.4825 15.41438467100390
FLOCK 4BE-7             
1 60481U 24149P   26155.74308269  .00023684  00000+0  59863-3 0  9993
2 60481  97.3757 238.7107 0001478 311.2455  48.8664 15.39794674100336
TOMORROW-S2             
1 60485U 24149T   26156.02329803  .00008943  00000+0  28683-3 0  9993
2 60485  97.3814 237.0128 0001777 348.6162  11.5039 15.32566182100225
FLOCK 4BE-36            
1 60486U 24149U   26156.24598942  .00015506  00000+0  36141-3 0  9991
2 60486  97.3742 240.5348 0002210 323.3462  36.7634 15.42340695100517
FLOCK 4BE-25            
1 60487U 24149V   26155.66646543  .00015707  00000+0  41528-3 0  9996
2 60487  97.3796 238.7355 0000848 332.8027  27.3174 15.38499747100312
FLOCK 4BE-31            
1 60488U 24149W   26156.02786536  .00024043  00000+0  53562-3 0  9999
2 60488  97.3799 241.1385 0001357 342.0063  18.1137 15.43602536100502
FLOCK 4BE-20            
1 60489U 24149X   26156.01401129  .00015562  00000+0  42178-3 0  9998
2 60489  97.3692 237.9954 0002323 322.8437  37.2647 15.37730449100343
FLOCK 4BE-23            
1 60490U 24149Y   26155.67581084  .00014293  00000+0  39241-3 0  9997
2 60490  97.3778 238.0253 0002152 338.3167  21.7986 15.37350850100276
FLOCK 4BE-15            
1 60491U 24149Z   26156.01753000  .00107777  00000+0  14431-2 0  9999
2 60491  97.3666 240.9605 0001156 232.4545 127.6605 15.57632386100535
FLOCK 4BE-17            
1 60492U 24149AA  26155.74194045  .00017239  00000+0  44212-3 0  9991
2 60492  97.3772 239.0167 0001562 315.2578  44.8541 15.39414858100343
NUSAT-50 (NANCY ROMAN)  
1 60493U 24149AB  26155.74006438  .00010008  00000+0  35107-3 0  9990
2 60493  97.3784 237.0853 0002256 221.0034 139.1037 15.29631577100222
FLOCK 4BE-22            
1 60494U 24149AC  26155.73454743  .00017902  00000+0  43895-3 0  9999
2 60494  97.3733 239.1814 0002463 330.2167  29.8939 15.40776109100384
FLOCK 4BE-34            
1 60495U 24149AD  26155.68676907  .00017301  00000+0  42418-3 0  9995
2 60495  97.3778 239.9474 0002342 345.8626  14.2555 15.40785973100406
TYCHE                   
1 60496U 24149AE  26155.93854174  .00005347  00000+0  21150-3 0  9995
2 60496  97.3751 233.9183 0001253 359.2837   0.8399 15.25884313100039
FLOCK 4BE-32            
1 60497U 24149AF  26156.24736192  .00017482  00000+0  41529-3 0  9995
2 60497  97.3718 240.0492 0002319 330.5759  29.5358 15.41739926100494
NUSAT-48 (HENRIETTA LE*)
1 60498U 24149AG  26155.66442328  .00010298  00000+0  35425-3 0  9992
2 60498  97.3901 237.2285 0003022 339.0073  21.1043 15.30257586100227
FLOCK 4BE-30            
1 60499U 24149AH  26155.70853529  .00124070  00000+0  19359-2 0  9998
2 60499  97.3767 240.8362 0002040 228.5176 131.5903 15.53392956 99830
NUSAT-49 (KLARA DAN VO*)
1 60500U 24149AJ  26155.70818056  .00010089  00000+0  34680-3 0  9996
2 60500  97.3775 237.0831 0002153  31.3894 328.7474 15.30287877100222
